      2.10          N: GNSS NAV DATA                        RINEX VERSION / TYPE
fic2rin                                 10/21/2021 00:17:47 PGM / RUN BY / DATE
                                                            END OF HEADER
18 21 10 20 16  0  0.0 3.076144494116e-04-5.229594535194e-12 0.000000000000e+00
    1.400000000000e+02 3.531250000000e+00 4.051240178986e-09-8.442669729139e-01
    4.097819328308e-08 2.038089674897e-03 1.190043985844e-05 5.153645555496e+03
    3.168000000000e+05 5.587935447693e-09 2.259756361523e-01-5.029141902924e-08
    9.699124863253e-01 1.533125000000e+02 3.003709628563e+00-7.715678531838e-09
    3.593006806013e-10 1.000000000000e+00 2.180000000000e+03 0.000000000000e+00
    2.400000000000e+00 0.000000000000e+00-8.381903171539e-09 9.080000000000e+02
    3.096000000000e+05 4.000000000000e+00
11 21 10 20 16  0  0.0 2.124020829797e-05-1.136868377216e-13 0.000000000000e+00
    2.500000000000e+01-3.250000000000e+00 4.319108479633e-09 1.611415356158e+00
   -1.732259988785e-07 4.521639784798e-04 1.194141805172e-05 5.153721611023e+03
    3.168000000000e+05 1.117587089539e-08 2.628993841860e-01-5.587935447693e-09
    9.611690141018e-01 1.520625000000e+02 2.325184685047e+00-7.814254066476e-09
    3.735869899691e-10 1.000000000000e+00 2.180000000000e+03 0.000000000000e+00
    6.850000000000e+00 6.300000000000e+01-8.847564458847e-09 5.370000000000e+02
    3.096000000000e+05 4.000000000000e+00
28 21 10 20 16  0  0.0 4.788818769157e-04-7.275957614183e-12 0.000000000000e+00
    1.860000000000e+02 4.590625000000e+01 4.564833000760e-09 1.612360954220e+00
    2.037733793259e-06 1.744067738764e-02 2.242624759674e-06 5.153711898804e+03
    3.168000000000e+05 2.793967723846e-07-1.795514780889e+00-2.570450305939e-07
    9.706362460271e-01 3.369062500000e+02-1.325073284678e+00-8.253558079537e-09
    1.785788670980e-10 1.000000000000e+00 2.180000000000e+03 0.000000000000e+00
    4.850000000000e+00 6.300000000000e+01-1.117587089539e-08 1.860000000000e+02
    3.096000000000e+05 4.000000000000e+00
31 21 10 20 15 59 44.0-1.459354534745e-04-1.932676241267e-12 0.000000000000e+00
    2.900000000000e+01 7.265625000000e+01 4.320179952836e-09-2.197264230155e+00
    3.602355718613e-06 1.028396608308e-02 1.201592385769e-05 5.153640357971e+03
    3.167840000000e+05 1.303851604462e-08-2.911933439453e+00-1.396983861923e-07
    9.560524025286e-01 1.463125000000e+02 3.148315642841e-01-7.851755628567e-09
    1.257195224370e-10 1.000000000000e+00 2.180000000000e+03 0.000000000000e+00
    2.400000000000e+00 0.000000000000e+00-1.303851604462e-08 2.900000000000e+01
    3.099000000000e+05 4.000000000000e+00
20 21 10 20 15 59 44.0 5.185431800783e-04-2.273736754432e-13 0.000000000000e+00
    2.300000000000e+01 5.050000000000e+01 5.474156592023e-09 4.926456360967e-02
    2.712011337280e-06 5.523182568140e-03 5.546957254410e-06 5.153666555405e+03
    3.167840000000e+05 3.911554813385e-08 1.101683727812e+00-3.539025783539e-08
    9.398257415259e-01 2.614375000000e+02 3.005571654101e+00-8.588929191947e-09
    4.928776731906e-10 1.000000000000e+00 2.180000000000e+03 0.000000000000e+00
    2.400000000000e+00 0.000000000000e+00-8.381903171539e-09 2.300000000000e+01
    3.103500000000e+05 4.000000000000e+00
 1 21 10 20 15 59 44.0 5.339155904949e-04-1.068656274583e-11 0.000000000000e+00
    6.000000000000e+00-5.937500000000e+00 3.722655063526e-09-1.120597643516e+00
   -1.750886440277e-07 1.107114495244e-02 1.279450953007e-05 5.153678901672e+03
    3.167840000000e+05 2.123415470123e-07 2.164263096531e-01 1.974403858185e-07
    9.861669998254e-01 1.448750000000e+02 8.886318113333e-01-7.593887744477e-09
    3.582292073987e-10 1.000000000000e+00 2.180000000000e+03 0.000000000000e+00
    2.400000000000e+00 0.000000000000e+00 5.122274160385e-09 6.000000000000e+00
    3.110400000000e+05 4.000000000000e+00
28 21 10 20 15 59 44.0 4.788832738996e-04-7.275957614183e-12 0.000000000000e+00
    1.300000000000e+01 4.590625000000e+01 4.564833000760e-09 1.610027406778e+00
    2.037733793259e-06 1.744067657273e-02 2.242624759674e-06 5.153711898804e+03
    3.167840000000e+05 2.793967723846e-07-1.795514643375e+00-2.570450305939e-07
    9.706362240833e-01 3.369062500000e+02-1.325073397323e+00-8.253558079537e-09
    1.785788670980e-10 1.000000000000e+00 2.180000000000e+03 0.000000000000e+00
    2.400000000000e+00 6.300000000000e+01-1.117587089539e-08 1.300000000000e+01
    3.139500000000e+05 4.000000000000e+00
 1 21 10 20 17 59 44.0 5.338382907212e-04-1.068656274583e-11 0.000000000000e+00
    7.000000000000e+00-2.562500000000e+00 3.693010971588e-09-7.036399114838e-02
   -1.098960638046e-07 1.107202575076e-02 1.269951462746e-05 5.153681035995e+03
    3.239840000000e+05 3.166496753693e-08 2.163708738354e-01 1.862645149231e-07
    9.861689835423e-01 1.521562500000e+02 8.885693973963e-01-7.732107787611e-09
    3.614436270064e-10 1.000000000000e+00 2.180000000000e+03 0.000000000000e+00
    2.400000000000e+00 0.000000000000e+00 5.122274160385e-09 7.000000000000e+00
    3.168000000000e+05 4.000000000000e+00
31 21 10 20 17 59 44.0-1.459494233131e-04-1.932676241267e-12 0.000000000000e+00
    3.000000000000e+01 6.900000000000e+01 4.393040130612e-09-1.147266151486e+00
    3.516674041748e-06 1.028490462340e-02 1.101382076740e-05 5.153636232376e+03
    3.239840000000e+05 1.657754182816e-07-2.911989736930e+00-1.378357410431e-07
    9.560531603202e-01 1.647187500000e+02 3.150355696731e-01-7.904614973228e-09
    6.500270762369e-11 1.000000000000e+00 2.180000000000e+03 0.000000000000e+00
    2.400000000000e+00 0.000000000000e+00-1.303851604462e-08 3.000000000000e+01
    3.168000000000e+05 4.000000000000e+00
20 21 10 20 17 59 44.0 5.185417830944e-04-2.273736754432e-13 0.000000000000e+00
    6.500000000000e+01 5.137500000000e+01 5.392724628627e-09 1.099445119365e+00
    2.603977918625e-06 5.522870807908e-03 5.811452865601e-06 5.153666128159e+03
    3.239840000000e+05 4.842877388000e-08 1.101622408138e+00 5.215406417847e-08
    9.398295012254e-01 2.577812500000e+02 3.005583259430e+00-8.509997332690e-09
    4.596620039104e-10 1.000000000000e+00 2.180000000000e+03 0.000000000000e+00
    2.400000000000e+00 0.000000000000e+00-8.381903171539e-09 6.500000000000e+01
    3.168000000000e+05 4.000000000000e+00
28 21 10 20 17 59 44.0 4.788315854967e-04-7.275957614183e-12 0.000000000000e+00
    1.400000000000e+01 5.725000000000e+01 4.515902391175e-09 2.660099260406e+00
    2.963468432426e-06 1.744019868784e-02 2.048909664154e-06 5.153714691162e+03
    3.239840000000e+05 1.937150955200e-07-1.795572554450e+00-7.450580596924e-09
    9.706376036151e-01 3.420312500000e+02-1.324989466787e+00-8.091408468212e-09
    8.357490980188e-11 1.000000000000e+00 2.180000000000e+03 0.000000000000e+00
    2.400000000000e+00 6.300000000000e+01-1.117587089539e-08 1.400000000000e+01
    3.168000000000e+05 4.000000000000e+00
 4 21 10 20 18  0  0.0-2.033873461187e-04 5.684341886081e-13 0.000000000000e+00
    7.000000000000e+00-5.403125000000e+01 4.812343310558e-09 1.755498211913e+00
   -2.712011337280e-06 1.465548761189e-03 8.020550012589e-06 5.153685398102e+03
    3.240000000000e+05 9.499490261078e-08 2.333842740409e+00 8.009374141693e-08
    9.607647981331e-01 2.252187500000e+02-3.110230416850e+00-8.208556205029e-09
   -5.510943838646e-10 1.000000000000e+00 2.180000000000e+03 0.000000000000e+00
    2.400000000000e+00 0.000000000000e+00-4.190951585770e-09 7.000000000000e+00
    3.168000000000e+05 4.000000000000e+00
 2 21 10 20 18  0  0.0-6.383578293025e-04-1.818989403546e-12 0.000000000000e+00
    2.800000000000e+01-2.175000000000e+01 4.213746948045e-09 1.683879157012e-01
   -1.268461346626e-06 2.035586501006e-02 1.242011785507e-05 5.153783142090e+03
    3.240000000000e+05-3.147870302200e-07 1.296059310873e-01-1.285225152969e-07
    9.646589222133e-01 1.465937500000e+02-1.486592677112e+00-8.141053393266e-09
    2.189376910622e-10 1.000000000000e+00 2.180000000000e+03 0.000000000000e+00
    2.400000000000e+00 0.000000000000e+00-1.769512891769e-08 2.800000000000e+01
    3.168000000000e+05 4.000000000000e+00
 5 21 10 20 18  0  0.0-5.831150338054e-05-1.250555214938e-12 0.000000000000e+00
    5.400000000000e+01 4.087500000000e+01 5.020923427329e-09 2.550156395130e+00
    2.078711986542e-06 6.050408934243e-03 5.312263965607e-06 5.153596263885e+03
    3.240000000000e+05-1.490116119385e-08 1.213503797864e+00-1.043081283569e-07
    9.576586426921e-01 2.764687500000e+02 1.010181143882e+00-8.217127990649e-09
    4.275178078327e-10 1.000000000000e+00 2.180000000000e+03 0.000000000000e+00
    2.400000000000e+00 0.000000000000e+00-1.117587089539e-08 5.400000000000e+01
    3.168000000000e+05 4.000000000000e+00
 3 21 10 20 18  0  0.0-3.318204544485e-04-1.296029950026e-11 0.000000000000e+00
    6.200000000000e+01 3.681250000000e+01 4.815557730166e-09-1.224211354643e+00
    2.065673470497e-06 3.888495615683e-03 4.870817065239e-06 5.153742025375e+03
    3.240000000000e+05 7.636845111847e-08 1.252334427430e+00 4.284083843231e-08
    9.706559895695e-01 2.925625000000e+02 9.991350210469e-01-8.249629344461e-09
    4.282321233011e-10 1.000000000000e+00 2.180000000000e+03 0.000000000000e+00
    3.400000000000e+00 0.000000000000e+00 1.862645149231e-09 6.200000000000e+01
    3.168000000000e+05 4.000000000000e+00
12 21 10 20 18  0  0.0-1.143724657595e-04-5.456968210638e-12 0.000000000000e+00
    1.500000000000e+01 5.306250000000e+01 4.614120768079e-09-1.405309579528e+00
    2.801418304443e-06 8.284248062409e-03 2.635642886162e-06 5.153661680222e+03
    3.240000000000e+05 1.173466444016e-07-1.817766639700e+00 2.067536115646e-07
    9.715217722843e-01 3.344062500000e+02 1.231510520031e+00-8.340347408947e-09
    1.221479450951e-10 1.000000000000e+00 2.180000000000e+03 0.000000000000e+00
    2.400000000000e+00 0.000000000000e+00-1.257285475731e-08 1.500000000000e+01
    3.168000000000e+05 4.000000000000e+00
